S-NET D                 
1 43186U 18014G   26139.49571269  .00003172  00000+0  16676-3 0  9991
2 43186  97.5385  44.4689 0009960 112.9463 247.2822 15.16369820454412
S-NET B                 
1 43187U 18014H   26139.24264525  .00002820  00000+0  14876-3 0  9998
2 43187  97.5391  44.2032 0010632 110.1241 250.1136 15.16337900454372
S-NET A                 
1 43188U 18014J   26139.23078206  .00002984  00000+0  15707-3 0  9992
2 43188  97.5400  44.3947 0010555 110.6870 249.5496 15.16374495454378
S-NET C                 
1 43189U 18014K   26139.24636733  .00002536  00000+0  13411-3 0  9992
2 43189  97.5418  44.4805 0012017 105.0210 255.2353 15.16329201452923
PAZ                     
1 43215U 18020A   26139.52016770  .00001097  00000+0  55429-4 0  9990
2 43215  97.4454 147.3134 0001645  88.9523 271.1900 15.19151284456657
GOES 17                 
1 43226U 18022A   26139.53239247 -.00000184  00000+0  00000+0 0  9998
2 43226   0.8663  86.0858 0000375 314.4182 298.8753  1.00271419 30139
LKW-4                   
1 43236U 18025A   26139.42615455  .00026438  00000+0  32944-3 0  9994
2 43236  97.6340 308.1035 0002878  68.1278 292.0284 15.59895797455541
ZHUHAI-1 OVS-02         
1 43440U 18040B   26139.48809103  .00004151  00000+0  17103-3 0  9997
2 43440  97.0403 158.4267 0004106  33.0857 327.0638 15.24599467448344
ZHUHAI-1 OHS-02         
1 43441U 18040C   26139.55452881  .00004727  00000+0  18955-3 0  9998
2 43441  97.0387 165.4003 0008387 345.4177  14.6819 15.25419327109916
GAOFEN-6                
1 43484U 18048A   26139.54241502  .00000622  00000+0  96126-4 0  9995
2 43484  97.7771 203.2734 0010477 268.0156  91.9854 14.76594611429163
LUOJIA-1 01             
1 43485U 18048B   26139.51266056  .00001966  00000+0  22454-3 0  9998
2 43485  97.8105 218.1627 0008244 206.4667 153.6129 14.87166347429955
PAKTES 1A               
1 43529U 18056A   26139.56858975  .00001754  00000+0  14980-3 0  9998
2 43529  98.1230 294.8418 0021597 201.3514 158.6808 14.98923623427639
PRSS-1                  
1 43530U 18056B   26139.49414404  .00000918  00000+0  12237-3 0  9991
2 43530  97.7831 208.1573 0001896  91.7980 268.3450 14.81939926424185
HAIYANG-1C              
1 43609U 18068A   26139.50117154  .00000153  00000+0  70012-4 0  9992
2 43609  98.5198 212.2221 0010983 173.2183 186.9152 14.34169294402979
SSTL S1-4               
1 43618U 18071A   26139.53120713  .00001264  00000+0  11701-3 0  9997
2 43618  97.5064  12.3318 0001401  78.6204 281.5176 14.96179731418658
HAIYANG-2B              
1 43655U 18081A   26139.51021025 -.00000035  00000+0  86456-5 0  9990
2 43655  99.3287 148.6988 0001500  44.7772 315.3501 13.79306554380972
CFOSAT                  
1 43662U 18083A   26139.52099860  .00001837  00000+0  97633-4 0  9991
2 43662  97.3610 144.8966 0001536  62.0824 298.0564 15.16504901418092
TEN-KOH                 
1 43677U 18084G   26139.49400707  .00001144  00000+0  90422-4 0  9990
2 43677  98.0751 330.6516 0008955 209.9306 150.1407 15.02788379411856
DIWATA-2B               
1 43678U 18084H   26139.49270006  .00001983  00000+0  16329-3 0  9992
2 43678  98.1109 334.4674 0011691 269.2783  90.7100 15.00299321411919
STARS-AO                
1 43679U 18084J   26139.51015685  .00003550  00000+0  18506-3 0  9997
2 43679  98.0526 351.7174 0000665 243.9183 116.1980 15.16699692413127
AUTCUBE 2               
1 43681U 18084K   26139.53667542  .00001997  00000+0  12762-3 0  9998
2 43681  98.0727 344.1936 0010103 134.0199 226.1863 15.09869631412608
METOP-C                 
1 43689U 18087A   26139.49067800  .00000060  00000+0  47111-4 0  9992
2 43689  98.6659 199.6162 0000499 146.7947 213.3262 14.21503464390752
ES'HAIL 2               
1 43700U 18090A   26139.31481693  .00000143  00000+0  00000+0 0  9994
2 43700   0.0153 339.1421 0001291 109.4949 287.4840  1.00269801 27387
MOHAMMED VI-B           
1 43717U 18095A   26139.52224236  .00000414  00000+0  65817-4 0  9991
2 43717  97.9565 212.2402 0001267  81.8080 278.3274 14.77075981403952
HYSIS                   
1 43719U 18096A   26139.51942719  .00000250  00000+0  41158-4 0  9996
2 43719  97.9850 206.4895 0001002 115.5167 244.6148 14.78626630403185
COSMOS 2530 (RODNIK-S *)
1 43751U 18097A   26139.55865990  .00000041  00000+0  22264-3 0  9996
2 43751  82.5158 240.0453 0020801  99.2908 261.0525 12.42880404338735
COSMOS 2531 (RODNIK-S *)
1 43752U 18097B   26139.58164405  .00000012  00000+0  16753-4 0  9998
2 43752  82.5203 241.0799 0017960 117.0247 243.2668 12.42911897338751
COSMOS 2532 (RODNIK-S *)
1 43753U 18097C   26139.52935140 -.00000001  00000+0 -76581-4 0  9990
2 43753  82.5149 239.9113 0019320 119.2361 241.0653 12.42908538338714
MINXSS-2                
1 43758U 18099A   26139.48079259  .00021246  00000+0  45376-3 0  9991
2 43758  97.4543 214.9685 0006801  20.5852 339.5669 15.44857020409698
SIRION PATHFINDER-2     
1 43759U 18099B   26139.10897072  .00002947  00000+0  16457-3 0  9997
2 43759  97.4267 188.8605 0009861  49.4231 310.7858 15.14255255408221
