OBJECT_NAME,OBJECT_ID,EPOCH,MEAN_MOTION,ECCENTRICITY,INCLINATION,RA_OF_ASC_NODE,ARG_OF_PERICENTER,MEAN_ANOMALY,EPHEMERIS_TYPE,CLASSIFICATION_TYPE,NORAD_CAT_ID,ELEMENT_SET_NO,REV_AT_EPOCH,BSTAR,MEAN_MOTION_DOT,MEAN_MOTION_DDOT
S-NET D,2018-014G,2026-05-19T11:53:49.576416,15.16369820,.000996,97.5385,44.4689,112.9463,247.2822,0,U,43186,999,45441,.16676E-3,.3172E-4,0
S-NET B,2018-014H,2026-05-19T05:49:24.549600,15.16337900,.0010632,97.5391,44.2032,110.1241,250.1136,0,U,43187,999,45437,.14876E-3,.282E-4,0
S-NET A,2018-014J,2026-05-19T05:32:19.569984,15.16374495,.0010555,97.5400,44.3947,110.6870,249.5496,0,U,43188,999,45437,.15707E-3,.2984E-4,0
S-NET C,2018-014K,2026-05-19T05:54:46.137312,15.16329201,.0012017,97.5418,44.4805,105.0210,255.2353,0,U,43189,999,45292,.13411E-3,.2536E-4,0
PAZ,2018-020A,2026-05-19T12:29:02.489280,15.19151284,.0001645,97.4454,147.3134,88.9523,271.1900,0,U,43215,999,45665,.55429E-4,.1097E-4,0
GOES 17,2018-022A,2026-05-19T12:46:38.709408,1.00271419,.0000375,0.8663,86.0858,314.4182,298.8753,0,U,43226,999,3013,0,-.184E-5,0
LKW-4,2018-025A,2026-05-19T10:13:39.753120,15.59895797,.0002878,97.6340,308.1035,68.1278,292.0284,0,U,43236,999,45554,.32944E-3,.26438E-3,0
ZHUHAI-1 OVS-02,2018-040B,2026-05-19T11:42:51.064992,15.24599467,.0004106,97.0403,158.4267,33.0857,327.0638,0,U,43440,999,44834,.17103E-3,.4151E-4,0
ZHUHAI-1 OHS-02,2018-040C,2026-05-19T13:18:31.289184,15.25419327,.0008387,97.0387,165.4003,345.4177,14.6819,0,U,43441,999,10991,.18955E-3,.4727E-4,0
GAOFEN-6,2018-048A,2026-05-19T13:01:04.657728,14.76594611,.0010477,97.7771,203.2734,268.0156,91.9854,0,U,43484,999,42916,.96126E-4,.622E-5,0
LUOJIA-1 01,2018-048B,2026-05-19T12:18:13.872384,14.87166347,.0008244,97.8105,218.1627,206.4667,153.6129,0,U,43485,999,42995,.22454E-3,.1966E-4,0
PAKTES 1A,2018-056A,2026-05-19T13:38:46.154400,14.98923623,.0021597,98.1230,294.8418,201.3514,158.6808,0,U,43529,999,42763,.1498E-3,.1754E-4,0
PRSS-1,2018-056B,2026-05-19T11:51:34.045056,14.81939926,.0001896,97.7831,208.1573,91.7980,268.3450,0,U,43530,999,42418,.12237E-3,.918E-5,0
HAIYANG-1C,2018-068A,2026-05-19T12:01:41.221056,14.34169294,.0010983,98.5198,212.2221,173.2183,186.9152,0,U,43609,999,40297,.70012E-4,.153E-5,0
SSTL S1-4,2018-071A,2026-05-19T12:44:56.296032,14.96179731,.0001401,97.5064,12.3318,78.6204,281.5176,0,U,43618,999,41865,.11701E-3,.1264E-4,0
HAIYANG-2B,2018-081A,2026-05-19T12:14:42.165600,13.79306554,.00015,99.3287,148.6988,44.7772,315.3501,0,U,43655,999,38097,.86456E-5,-.35E-6,0
CFOSAT,2018-083A,2026-05-19T12:30:14.279040,15.16504901,.0001536,97.3610,144.8966,62.0824,298.0564,0,U,43662,999,41809,.97633E-4,.1837E-4,0
TEN-KOH,2018-084G,2026-05-19T11:51:22.210848,15.02788379,.0008955,98.0751,330.6516,209.9306,150.1407,0,U,43677,999,41185,.90422E-4,.1144E-4,0
DIWATA-2B,2018-084H,2026-05-19T11:49:29.285184,15.00299321,.0011691,98.1109,334.4674,269.2783,90.7100,0,U,43678,999,41191,.16329E-3,.1983E-4,0
STARS-AO,2018-084J,2026-05-19T12:14:37.551840,15.16699692,.0000665,98.0526,351.7174,243.9183,116.1980,0,U,43679,999,41312,.18506E-3,.355E-4,0
AUTCUBE 2,2018-084K,2026-05-19T12:52:48.756288,15.09869631,.0010103,98.0727,344.1936,134.0199,226.1863,0,U,43681,999,41260,.12762E-3,.1997E-4,0
METOP-C,2018-087A,2026-05-19T11:46:34.579200,14.21503464,.0000499,98.6659,199.6162,146.7947,213.3262,0,U,43689,999,39075,.47111E-4,.6E-6,0
ES'HAIL 2,2018-090A,2026-05-19T07:33:20.182752,1.00269801,.0001291,0.0153,339.1421,109.4949,287.4840,0,U,43700,999,2738,0,.143E-5,0
MOHAMMED VI-B,2018-095A,2026-05-19T12:32:01.739904,14.77075981,.0001267,97.9565,212.2402,81.8080,278.3274,0,U,43717,999,40395,.65817E-4,.414E-5,0
HYSIS,2018-096A,2026-05-19T12:27:58.509216,14.78626630,.0001002,97.9850,206.4895,115.5167,244.6148,0,U,43719,999,40318,.41158E-4,.25E-5,0
COSMOS 2530 (RODNIK-S 16),2018-097A,2026-05-19T13:24:28.215360,12.42880404,.0020801,82.5158,240.0453,99.2908,261.0525,0,U,43751,999,33873,.22264E-3,.41E-6,0
COSMOS 2531 (RODNIK-S 17),2018-097B,2026-05-19T13:57:34.045920,12.42911897,.001796,82.5203,241.0799,117.0247,243.2668,0,U,43752,999,33875,.16753E-4,.12E-6,0
COSMOS 2532 (RODNIK-S 18),2018-097C,2026-05-19T12:42:15.960960,12.42908538,.001932,82.5149,239.9113,119.2361,241.0653,0,U,43753,999,33871,-.76581E-4,-.1E-7,0
MINXSS-2,2018-099A,2026-05-19T11:32:20.479776,15.44857020,.0006801,97.4543,214.9685,20.5852,339.5669,0,U,43758,999,40969,.45376E-3,.21246E-3,0
SIRION PATHFINDER-2,2018-099B,2026-05-19T02:36:55.070208,15.14255255,.00098611,97.4267,188.8605,49.4231,310.7858,0,U,43759,999,40822,.16456909E-3,.2947E-4,0
